{"type": "FeatureCollection", "features": [ {"type": "Feature", "properties": {"norad_id": 30035, "name": "FENGYUN 1C DEB", "group": "fengyun-1c-debris", "lat": 50.378185160811306, "lon": 86.92359914498026, "alt_km": 710.7934671151143, "timestamp": "2025-12-07T03:52:32.770334+00:00", "meta": {"OBJECT_NAME": "FENGYUN 1C DEB", "OBJECT_ID": "1999-025NL", "EPOCH": "2025-12-06T15:54:04.328640", "MEAN_MOTION": 14.3697029, "ECCENTRICITY": 0.01156702, "INCLINATION": 99.2703, "RA_OF_ASC_NODE": 255.0086, "ARG_OF_PERICENTER": 79.493, "MEAN_ANOMALY": 348.5038, "EPHEMERIS_TYPE": 0, "CLASSIFICATION_TYPE": "U", "NORAD_CAT_ID": 30035, "ELEMENT_SET_NO": 999, "REV_AT_EPOCH": 99036, "BSTAR": 0.0001367877, "MEAN_MOTION_DOT": 3.85e-06, "MEAN_MOTION_DDOT": 0}, "tle": {"line1": "1 30035U 99025NL  25340.66255010  .00000385  00000+0  13679-3 0  9999", "line2": "2 30035  99.2703 255.0086 0115670  79.4930 348.5038 14.36970290990360"}}, "geometry": {"type": "Point", "coordinates": [86.92359914498026, 50.378185160811306]}}, {"type": "Feature", "properties": {"norad_id": 30036, "name": "FENGYUN 1C DEB", "group": "fengyun-1c-debris", "lat": 34.97044088597317, "lon": 2.5757928407492985, "alt_km": 869.1054175833333, "timestamp": "2025-12-07T03:52:32.770353+00:00", "meta": {"OBJECT_NAME": "FENGYUN 1C DEB", "OBJECT_ID": "1999-025NM", "EPOCH": "2025-12-05T23:46:34.864320", "MEAN_MOTION": 14.46142007, "ECCENTRICITY": 0.01896962, "INCLINATION": 98.2529, "RA_OF_ASC_NODE": 7.2619, "ARG_OF_PERICENTER": 228.286, "MEAN_ANOMALY": 195.0301, "EPHEMERIS_TYPE": 0, "CLASSIFICATION_TYPE": "U", "NORAD_CAT_ID": 30036, "ELEMENT_SET_NO": 999, "REV_AT_EPOCH": 99079, "BSTAR": 0.00077701865, "MEAN_MOTION_DOT": 3.42e-05, "MEAN_MOTION_DDOT": 0}, "tle": {"line1": "1 30036U 99025NM  25339.99068130  .00003420  00000+0  77702-3 0  9999", "line2": "2 30036  98.2529   7.2619 0189696 228.2860 195.0301 14.46142007990793"}}, "geometry": {"type": "Point", "coordinates": [2.5757928407492985, 34.97044088597317]}}, {"type": "Feature", "properties": {"norad_id": 30037, "name": "FENGYUN 1C DEB", "group": "fengyun-1c-debris", "lat": -49.94766571497766, "lon": -32.85239870963612, "alt_km": 849.9415536557517, "timestamp": "2025-12-07T03:52:32.770364+00:00", "meta": {"OBJECT_NAME": "FENGYUN 1C DEB", "OBJECT_ID": "1999-025NN", "EPOCH": "2025-12-06T10:22:43.338720", "MEAN_MOTION": 14.34105099, "ECCENTRICITY": 0.01746256, "INCLINATION": 98.3827, "RA_OF_ASC_NODE": 316.3383, "ARG_OF_PERICENTER": 73.7624, "MEAN_ANOMALY": 75.607, "EPHEMERIS_TYPE": 0, "CLASSIFICATION_TYPE": "U", "NORAD_CAT_ID": 30037, "ELEMENT_SET_NO": 999, "REV_AT_EPOCH": 98697, "BSTAR": 0.00035873478, "MEAN_MOTION_DOT": 1.145e-05, "MEAN_MOTION_DDOT": 0}, "tle": {"line1": "1 30037U 99025NN  25340.43244605  .00001145  00000+0  35873-3 0  9999", "line2": "2 30037  98.3827 316.3383 0174625  73.7624  75.6070 14.34105099986973"}}, "geometry": {"type": "Point", "coordinates": [-32.85239870963612, -49.94766571497766]}}, {"type": "Feature", "properties": {"norad_id": 30038, "name": "FENGYUN 1C DEB", "group": "fengyun-1c-debris", "lat": -59.84802729230287, "lon": 134.240201563067, "alt_km": 860.3746653931585, "timestamp": "2025-12-07T03:52:32.770374+00:00", "meta": {"OBJECT_NAME": "FENGYUN 1C DEB", "OBJECT_ID": "1999-025NP", "EPOCH": "2025-12-06T10:49:13.401120", "MEAN_MOTION": 14.39275858, "ECCENTRICITY": 0.02578883, "INCLINATION": 98.3678, "RA_OF_ASC_NODE": 328.2236, "ARG_OF_PERICENTER": 121.6239, "MEAN_ANOMALY": 36.7167, "EPHEMERIS_TYPE": 0, "CLASSIFICATION_TYPE": "U", "NORAD_CAT_ID": 30038, "ELEMENT_SET_NO": 999, "REV_AT_EPOCH": 98800, "BSTAR": 0.00036252328, "MEAN_MOTION_DOT": 1.612e-05, "MEAN_MOTION_DDOT": 0}, "tle": {"line1": "1 30038U 99025NP  25340.45084955  .00001612  00000+0  36252-3 0  9993", "line2": "2 30038  98.3678 328.2236 0257888 121.6239  36.7167 14.39275858988002"}}, "geometry": {"type": "Point", "coordinates": [134.240201563067, -59.84802729230287]}}, {"type": "Feature", "properties": {"norad_id": 30040, "name": "FENGYUN 1C DEB", "group": "fengyun-1c-debris", "lat": 49.17509950984373, "lon": -11.867318674559483, "alt_km": 759.6302550274013, "timestamp": "2025-12-07T03:52:32.770385+00:00", "meta": {"OBJECT_NAME": "FENGYUN 1C DEB", "OBJECT_ID": "1999-025NR", "EPOCH": "2025-12-06T07:40:00.596640", "MEAN_MOTION": 14.37023417, "ECCENTRICITY": 0.00326359, "INCLINATION": 98.2336, "RA_OF_ASC_NODE": 356.9752, "ARG_OF_PERICENTER": 332.6568, "MEAN_ANOMALY": 43.3143, "EPHEMERIS_TYPE": 0, "CLASSIFICATION_TYPE": "U", "NORAD_CAT_ID": 30040, "ELEMENT_SET_NO": 999, "REV_AT_EPOCH": 97836, "BSTAR": 0.0031141003, "MEAN_MOTION_DOT": 9.262e-05, "MEAN_MOTION_DDOT": 0}, "tle": {"line1": "1 30040U 99025NR  25340.31945135  .00009262  00000+0  31141-2 0  9997", "line2": "2 30040  98.2336 356.9752 0032635 332.6568  43.3143 14.37023417978362"}}, "geometry": {"type": "Point", "coordinates": [-11.867318674559483, 49.17509950984373]}}, {"type": "Feature", "properties": {"norad_id": 30041, "name": "FENGYUN 1C DEB", "group": "fengyun-1c-debris", "lat": 67.22171725241785, "lon": -69.24602860036553, "alt_km": 855.0813254316663, "timestamp": "2025-12-07T03:52:32.770396+00:00", "meta": {"OBJECT_NAME": "FENGYUN 1C DEB", "OBJECT_ID": "1999-025NS", "EPOCH": "2025-12-06T01:00:24.750432", "MEAN_MOTION": 14.13165887, "ECCENTRICITY": 0.003456, "INCLINATION": 99.4672, "RA_OF_ASC_NODE": 86.1571, "ARG_OF_PERICENTER": 235.7899, "MEAN_ANOMALY": 302.897, "EPHEMERIS_TYPE": 0, "CLASSIFICATION_TYPE": "U", "NORAD_CAT_ID": 30041, "ELEMENT_SET_NO": 999, "REV_AT_EPOCH": 97192, "BSTAR": 0.00083855554, "MEAN_MOTION_DOT": 1.528e-05, "MEAN_MOTION_DDOT": 0}, "tle": {"line1": "1 30041U 99025NS  25340.04195313  .00001528  00000+0  83856-3 0  9991", "line2": "2 30041  99.4672  86.1571 0034560 235.7899 302.8970 14.13165887971927"}}, "geometry": {"type": "Point", "coordinates": [-69.24602860036553, 67.22171725241785]}}, {"type": "Feature", "properties": {"norad_id": 30043, "name": "FENGYUN 1C DEB", "group": "fengyun-1c-debris", "lat": -77.59340655509881, "lon": 122.86387241385687, "alt_km": 953.6203131233415, "timestamp": "2025-12-07T03:52:32.770407+00:00", "meta": {"OBJECT_NAME": "FENGYUN 1C DEB", "OBJECT_ID": "1999-025NU", "EPOCH": "2025-12-06T13:05:35.487168", "MEAN_MOTION": 14.23503029, "ECCENTRICITY": 0.02838002, "INCLINATION": 98.6278, "RA_OF_ASC_NODE": 78.6146, "ARG_OF_PERICENTER": 148.9452, "MEAN_ANOMALY": 212.8855, "EPHEMERIS_TYPE": 0, "CLASSIFICATION_TYPE": "U", "NORAD_CAT_ID": 30043, "ELEMENT_SET_NO": 999, "REV_AT_EPOCH": 97257, "BSTAR": 0.0020077755, "MEAN_MOTION_DOT": 6.883e-05, "MEAN_MOTION_DDOT": 0}, "tle": {"line1": "1 30043U 99025NU  25340.54554962  .00006883  00000+0  20078-2 0  9992", "line2": "2 30043  98.6278  78.6146 0283800 148.9452 212.8855 14.23503029972578"}}, "geometry": {"type": "Point", "coordinates": [122.86387241385687, -77.59340655509881]}}, {"type": "Feature", "properties": {"norad_id": 30044, "name": "FENGYUN 1C DEB", "group": "fengyun-1c-debris", "lat": -21.8728268600835, "lon": -95.0864937847407, "alt_km": 779.2799753998606, "timestamp": "2025-12-07T03:52:32.770417+00:00", "meta": {"OBJECT_NAME": "FENGYUN 1C DEB", "OBJECT_ID": "1999-025NV", "EPOCH": "2025-12-06T11:25:24.819744", "MEAN_MOTION": 14.5053004, "ECCENTRICITY": 0.00791107, "INCLINATION": 98.2116, "RA_OF_ASC_NODE": 260.9215, "ARG_OF_PERICENTER": 186.8367, "MEAN_ANOMALY": 173.1756, "EPHEMERIS_TYPE": 0, "CLASSIFICATION_TYPE": "U", "NORAD_CAT_ID": 30044, "ELEMENT_SET_NO": 999, "REV_AT_EPOCH": 97948, "BSTAR": 0.0032239694, "MEAN_MOTION_DOT": 0.0001312, "MEAN_MOTION_DDOT": 0}, "tle": {"line1": "1 30044U 99025NV  25340.47598171  .00013120  00000+0  32240-2 0  9991", "line2": "2 30044  98.2116 260.9215 0079110 186.8367 173.1756 14.50530040979481"}}, "geometry": {"type": "Point", "coordinates": [-95.0864937847407, -21.8728268600835]}}, {"type": "Feature", "properties": {"norad_id": 30045, "name": "FENGYUN 1C DEB", "group": "fengyun-1c-debris", "lat": 1.2028629455097113, "lon": 16.314521539326645, "alt_km": 864.44490822029, "timestamp": "2025-12-07T03:52:32.770428+00:00", "meta": {"OBJECT_NAME": "FENGYUN 1C DEB", "OBJECT_ID": "1999-025NW", "EPOCH": "2025-12-06T00:56:06.586368", "MEAN_MOTION": 14.21516554, "ECCENTRICITY": 0.00952161, "INCLINATION": 99.1788, "RA_OF_ASC_NODE": 15.3423, "ARG_OF_PERICENTER": 132.2541, "MEAN_ANOMALY": 248.6327, "EPHEMERIS_TYPE": 0, "CLASSIFICATION_TYPE": "U", "NORAD_CAT_ID": 30045, "ELEMENT_SET_NO": 999, "REV_AT_EPOCH": 96593, "BSTAR": 0.0032343931, "MEAN_MOTION_DOT": 7.374e-05, "MEAN_MOTION_DDOT": 0}, "tle": {"line1": "1 30045U 99025NW  25340.03896512  .00007374  00000+0  32344-2 0  9993", "line2": "2 30045  99.1788  15.3423 0095216 132.2541 248.6327 14.21516554965933"}}, "geometry": {"type": "Point", "coordinates": [16.314521539326645, 1.2028629455097113]}}, {"type": "Feature", "properties": {"norad_id": 30047, "name": "FENGYUN 1C DEB", "group": "fengyun-1c-debris", "lat": 52.66105597951484, "lon": -28.997908828157566, "alt_km": 986.1896513218489, "timestamp": "2025-12-07T03:52:32.770439+00:00", "meta": {"OBJECT_NAME": "FENGYUN 1C DEB", "OBJECT_ID": "1999-025NY", "EPOCH": "2025-12-06T10:10:20.486208", "MEAN_MOTION": 13.94338692, "ECCENTRICITY": 0.01256233, "INCLINATION": 99.9192, "RA_OF_ASC_NODE": 136.9503, "ARG_OF_PERICENTER": 339.6377, "MEAN_ANOMALY": 44.9968, "EPHEMERIS_TYPE": 0, "CLASSIFICATION_TYPE": "U", "NORAD_CAT_ID": 30047, "ELEMENT_SET_NO": 999, "REV_AT_EPOCH": 95828, "BSTAR": 0.00097159129, "MEAN_MOTION_DOT": 1.329e-05, "MEAN_MOTION_DDOT": 0}, "tle": {"line1": "1 30047U 99025NY  25340.42384822  .00001329  00000+0  97159-3 0  9994", "line2": "2 30047  99.9192 136.9503 0125623 339.6377  44.9968 13.94338692958289"}}, "geometry": {"type": "Point", "coordinates": [-28.997908828157566, 52.66105597951484]}}]}